{"type": "FeatureCollection", "features": [ {"type": "Feature", "properties": {"norad_id": 40697, "name": "SENTINEL-2A", "group": "resource", "lat": -39.690984048850126, "lon": -135.0725461205294, "alt_km": 795.9036957024173, "timestamp": "2025-12-05T11:32:55.683663+00:00", "meta": {"OBJECT_NAME": "SENTINEL-2A", "OBJECT_ID": "2015-028A", "EPOCH": "2025-12-04T17:44:24.103968", "MEAN_MOTION": 14.30822555, "ECCENTRICITY": 0.0001031, "INCLINATION": 98.5701, "RA_OF_ASC_NODE": 51.3858, "ARG_OF_PERICENTER": 93.736, "MEAN_ANOMALY": 266.394, "EPHEMERIS_TYPE": 0, "CLASSIFICATION_TYPE": "U", "NORAD_CAT_ID": 40697, "ELEMENT_SET_NO": 999, "REV_AT_EPOCH": 54592, "BSTAR": 0.00014392, "MEAN_MOTION_DOT": 3.34e-06, "MEAN_MOTION_DDOT": 0}, "tle": {"line1": "1 40697U 15028A   25338.73916787  .00000334  00000+0  14392-3 0  9992", "line2": "2 40697  98.5701  51.3858 0001031  93.7360 266.3940 14.30822555545921"}}, "geometry": {"type": "Point", "coordinates": [-135.0725461205294, -39.690984048850126]}}, {"type": "Feature", "properties": {"norad_id": 40701, "name": "GAOFEN-8", "group": "resource", "lat": -18.706515398092183, "lon": 159.89219968593721, "alt_km": 464.3353138491848, "timestamp": "2025-12-05T11:32:55.683674+00:00", "meta": {"OBJECT_NAME": "GAOFEN-8", "OBJECT_ID": "2015-030A", "EPOCH": "2025-12-04T18:27:23.352192", "MEAN_MOTION": 15.38141302, "ECCENTRICITY": 0.001127, "INCLINATION": 97.6906, "RA_OF_ASC_NODE": 156.5234, "ARG_OF_PERICENTER": 166.001, "MEAN_ANOMALY": 194.1549, "EPHEMERIS_TYPE": 0, "CLASSIFICATION_TYPE": "U", "NORAD_CAT_ID": 40701, "ELEMENT_SET_NO": 999, "REV_AT_EPOCH": 58148, "BSTAR": 0.00087907, "MEAN_MOTION_DOT": 0.00033095, "MEAN_MOTION_DDOT": 0}, "tle": {"line1": "1 40701U 15030A   25338.76902028  .00033095  00000+0  87907-3 0  9999", "line2": "2 40701  97.6906 156.5234 0011270 166.0010 194.1549 15.38141302581489"}}, "geometry": {"type": "Point", "coordinates": [159.89219968593721, -18.706515398092183]}}, {"type": "Feature", "properties": {"norad_id": 40718, "name": "CARBONITE 1 (CBNT-1)", "group": "resource", "lat": -73.42323203508728, "lon": -172.35249881597682, "alt_km": 626.2615832623342, "timestamp": "2025-12-05T11:32:55.683685+00:00", "meta": {"OBJECT_NAME": "CARBONITE 1 (CBNT-1)", "OBJECT_ID": "2015-032D", "EPOCH": "2025-12-04T18:04:17.981760", "MEAN_MOTION": 14.82684987, "ECCENTRICITY": 0.0013912, "INCLINATION": 97.6398, "RA_OF_ASC_NODE": 160.149, "ARG_OF_PERICENTER": 208.334, "MEAN_ANOMALY": 151.7119, "EPHEMERIS_TYPE": 0, "CLASSIFICATION_TYPE": "U", "NORAD_CAT_ID": 40718, "ELEMENT_SET_NO": 999, "REV_AT_EPOCH": 56052, "BSTAR": 0.00060721, "MEAN_MOTION_DOT": 4.856e-05, "MEAN_MOTION_DDOT": 0}, "tle": {"line1": "1 40718U 15032D   25338.75298590  .00004856  00000+0  60721-3 0  9998", "line2": "2 40718  97.6398 160.1490 0013912 208.3340 151.7119 14.82684987560521"}}, "geometry": {"type": "Point", "coordinates": [-172.35249881597682, -73.42323203508728]}}, {"type": "Feature", "properties": {"norad_id": 40878, "name": "YAOGAN-27", "group": "resource", "lat": 10.517609898043709, "lon": -32.46665484537444, "alt_km": 1198.6947077514697, "timestamp": "2025-12-05T11:32:55.683696+00:00", "meta": {"OBJECT_NAME": "YAOGAN-27", "OBJECT_ID": "2015-040A", "EPOCH": "2025-12-04T19:04:26.737824", "MEAN_MOTION": 13.1605972, "ECCENTRICITY": 0.0007718, "INCLINATION": 100.1005, "RA_OF_ASC_NODE": 328.7744, "ARG_OF_PERICENTER": 306.2953, "MEAN_ANOMALY": 53.7448, "EPHEMERIS_TYPE": 0, "CLASSIFICATION_TYPE": "U", "NORAD_CAT_ID": 40878, "ELEMENT_SET_NO": 999, "REV_AT_EPOCH": 49209, "BSTAR": 9.6059e-05, "MEAN_MOTION_DOT": -6e-08, "MEAN_MOTION_DDOT": 0}, "tle": {"line1": "1 40878U 15040A   25338.79475391 -.00000006  00000+0  96059-4 0  9992", "line2": "2 40878 100.1005 328.7744 0007718 306.2953  53.7448 13.16059720492091"}}, "geometry": {"type": "Point", "coordinates": [-32.46665484537444, 10.517609898043709]}}, {"type": "Feature", "properties": {"norad_id": 40894, "name": "GAOFEN-9 01", "group": "resource", "lat": -33.40130871730362, "lon": -166.33789275885587, "alt_km": 646.5081151436698, "timestamp": "2025-12-05T11:32:55.683707+00:00", "meta": {"OBJECT_NAME": "GAOFEN-9 01", "OBJECT_ID": "2015-047A", "EPOCH": "2025-12-04T18:23:23.568864", "MEAN_MOTION": 14.82391385, "ECCENTRICITY": 0.0028884, "INCLINATION": 97.6553, "RA_OF_ASC_NODE": 18.0663, "ARG_OF_PERICENTER": 59.4868, "MEAN_ANOMALY": 300.9192, "EPHEMERIS_TYPE": 0, "CLASSIFICATION_TYPE": "U", "NORAD_CAT_ID": 40894, "ELEMENT_SET_NO": 999, "REV_AT_EPOCH": 55138, "BSTAR": 0.00033438, "MEAN_MOTION_DOT": 2.646e-05, "MEAN_MOTION_DDOT": 0}, "tle": {"line1": "1 40894U 15047A   25338.76624501  .00002646  00000+0  33438-3 0  9995", "line2": "2 40894  97.6553  18.0663 0028884  59.4868 300.9192 14.82391385551386"}}, "geometry": {"type": "Point", "coordinates": [-166.33789275885587, -33.40130871730362]}}, {"type": "Feature", "properties": {"norad_id": 41026, "name": "YAOGAN-28", "group": "resource", "lat": -7.002217357890085, "lon": 118.37918600041301, "alt_km": 504.85442212426096, "timestamp": "2025-12-05T11:32:55.683718+00:00", "meta": {"OBJECT_NAME": "YAOGAN-28", "OBJECT_ID": "2015-064A", "EPOCH": "2025-12-04T18:14:51.069984", "MEAN_MOTION": 15.24142058, "ECCENTRICITY": 0.0012026, "INCLINATION": 97.2801, "RA_OF_ASC_NODE": 116.7794, "ARG_OF_PERICENTER": 152.5608, "MEAN_ANOMALY": 207.6267, "EPHEMERIS_TYPE": 0, "CLASSIFICATION_TYPE": "U", "NORAD_CAT_ID": 41026, "ELEMENT_SET_NO": 999, "REV_AT_EPOCH": 56103, "BSTAR": 0.00074027, "MEAN_MOTION_DOT": 0.00017999, "MEAN_MOTION_DDOT": 0}, "tle": {"line1": "1 41026U 15064A   25338.76031331  .00017999  00000+0  74027-3 0  9991", "line2": "2 41026  97.2801 116.7794 0012026 152.5608 207.6267 15.24142058561032"}}, "geometry": {"type": "Point", "coordinates": [118.37918600041301, -7.002217357890085]}}, {"type": "Feature", "properties": {"norad_id": 41038, "name": "YAOGAN-29", "group": "resource", "lat": 81.89716862983418, "lon": -79.52847780378147, "alt_km": 612.8053986510167, "timestamp": "2025-12-05T11:32:55.683731+00:00", "meta": {"OBJECT_NAME": "YAOGAN-29", "OBJECT_ID": "2015-069A", "EPOCH": "2025-12-04T18:57:17.189856", "MEAN_MOTION": 14.82869169, "ECCENTRICITY": 6.59e-05, "INCLINATION": 98.0227, "RA_OF_ASC_NODE": 1.9357, "ARG_OF_PERICENTER": 2.1038, "MEAN_ANOMALY": 358.0178, "EPHEMERIS_TYPE": 0, "CLASSIFICATION_TYPE": "U", "NORAD_CAT_ID": 41038, "ELEMENT_SET_NO": 999, "REV_AT_EPOCH": 54181, "BSTAR": 0.00012541, "MEAN_MOTION_DOT": 9.62e-06, "MEAN_MOTION_DDOT": 0}, "tle": {"line1": "1 41038U 15069A   25338.78978229  .00000962  00000+0  12541-3 0  9992", "line2": "2 41038  98.0227   1.9357 0000659   2.1038 358.0178 14.82869169541810"}}, "geometry": {"type": "Point", "coordinates": [-79.52847780378147, 81.89716862983418]}}, {"type": "Feature", "properties": {"norad_id": 41167, "name": "KENT RIDGE 1", "group": "resource", "lat": -14.932474973231438, "lon": 179.1768427604767, "alt_km": 502.5018844760734, "timestamp": "2025-12-05T11:32:55.683741+00:00", "meta": {"OBJECT_NAME": "KENT RIDGE 1", "OBJECT_ID": "2015-077B", "EPOCH": "2025-12-04T13:53:53.103840", "MEAN_MOTION": 15.21536825, "ECCENTRICITY": 0.0008627, "INCLINATION": 14.9803, "RA_OF_ASC_NODE": 271.6913, "ARG_OF_PERICENTER": 15.1583, "MEAN_ANOMALY": 344.8997, "EPHEMERIS_TYPE": 0, "CLASSIFICATION_TYPE": "U", "NORAD_CAT_ID": 41167, "ELEMENT_SET_NO": 999, "REV_AT_EPOCH": 55139, "BSTAR": 0.00034598, "MEAN_MOTION_DOT": 8.804e-05, "MEAN_MOTION_DDOT": 0}, "tle": {"line1": "1 41167U 15077B   25338.57908685  .00008804  00000+0  34598-3 0  9999", "line2": "2 41167  14.9803 271.6913 0008627  15.1583 344.8997 15.21536825551396"}}, "geometry": {"type": "Point", "coordinates": [179.1768427604767, -14.932474973231438]}}, {"type": "Feature", "properties": {"norad_id": 41194, "name": "GAOFEN-4", "group": "resource", "lat": -0.13665135530190411, "lon": -6.53991026254328, "alt_km": 35800.98224631839, "timestamp": "2025-12-05T11:32:55.683754+00:00", "meta": {"OBJECT_NAME": "GAOFEN-4", "OBJECT_ID": "2015-083A", "EPOCH": "2025-12-04T17:39:12.040992", "MEAN_MOTION": 1.00272933, "ECCENTRICITY": 0.0003689, "INCLINATION": 0.1487, "RA_OF_ASC_NODE": 80.8427, "ARG_OF_PERICENTER": 105.3888, "MEAN_ANOMALY": 258.066, "EPHEMERIS_TYPE": 0, "CLASSIFICATION_TYPE": "U", "NORAD_CAT_ID": 41194, "ELEMENT_SET_NO": 999, "REV_AT_EPOCH": 3658, "BSTAR": 0, "MEAN_MOTION_DOT": -3.21e-06, "MEAN_MOTION_DDOT": 0}, "tle": {"line1": "1 41194U 15083A   25338.73555603 -.00000321  00000+0  00000+0 0  9996", "line2": "2 41194   0.1487  80.8427 0003689 105.3888 258.0660  1.00272933 36585"}}, "geometry": {"type": "Point", "coordinates": [-6.53991026254328, -0.13665135530190411]}}, {"type": "Feature", "properties": {"norad_id": 41240, "name": "JASON-3", "group": "resource", "lat": 28.807007999072408, "lon": -21.068456044354896, "alt_km": 1311.5010878580033, "timestamp": "2025-12-05T11:32:55.683765+00:00", "meta": {"OBJECT_NAME": "JASON-3", "OBJECT_ID": "2016-002A", "EPOCH": "2025-12-04T16:08:27.386016", "MEAN_MOTION": 12.87626112, "ECCENTRICITY": 0.0007136, "INCLINATION": 66.0392, "RA_OF_ASC_NODE": 174.785, "ARG_OF_PERICENTER": 270.3157, "MEAN_ANOMALY": 89.7044, "EPHEMERIS_TYPE": 0, "CLASSIFICATION_TYPE": "U", "NORAD_CAT_ID": 41240, "ELEMENT_SET_NO": 999, "REV_AT_EPOCH": 46220, "BSTAR": 0.00016946, "MEAN_MOTION_DOT": -1.9e-07, "MEAN_MOTION_DDOT": 0}, "tle": {"line1": "1 41240U 16002A   25338.67253919 -.00000019  00000+0  16946-3 0  9992", "line2": "2 41240  66.0392 174.7850 0007136 270.3157  89.7044 12.87626112462205"}}, "geometry": {"type": "Point", "coordinates": [-21.068456044354896, 28.807007999072408]}}]}